SPOT 6                  
1 38755U 12047A   26189.46452373  .00000467  00000+0  11033-3 0  9999
2 38755  98.2106 256.5239 0001143  80.9277 279.2051 14.58537466736157
SPOT 7                  
1 40053U 14034A   26189.48153337  .00000517  00000+0  11471-3 0  9993
2 40053  98.0614 251.4242 0001531  96.8726 263.2649 14.60978325640243
