{"fetched_at":"2026-07-08T18:00:49.372Z","source":"https://celestrak.org/NORAD/elements/gp.php?NAME=SPOT&FORMAT=JSON","constellation":"spot","records":[{"OBJECT_NAME":"SPOT 6","OBJECT_ID":"2012-047A","EPOCH":"2026-07-08T11:08:54.850272","CLASSIFICATION_TYPE":"U","MEAN_MOTION":14.58537466,"ECCENTRICITY":0.0001143,"INCLINATION":98.2106,"RA_OF_ASC_NODE":256.5239,"ARG_OF_PERICENTER":80.9277,"MEAN_ANOMALY":279.2051,"EPHEMERIS_TYPE":0,"NORAD_CAT_ID":38755,"ELEMENT_SET_NO":999,"REV_AT_EPOCH":73615,"BSTAR":0.00011033,"MEAN_MOTION_DOT":0.00000467,"MEAN_MOTION_DDOT":0},{"OBJECT_NAME":"SPOT 7","OBJECT_ID":"2014-034A","EPOCH":"2026-07-08T11:33:24.483168","CLASSIFICATION_TYPE":"U","MEAN_MOTION":14.60978325,"ECCENTRICITY":0.0001531,"INCLINATION":98.0614,"RA_OF_ASC_NODE":251.4242,"ARG_OF_PERICENTER":96.8726,"MEAN_ANOMALY":263.2649,"EPHEMERIS_TYPE":0,"NORAD_CAT_ID":40053,"ELEMENT_SET_NO":999,"REV_AT_EPOCH":64024,"BSTAR":0.00011471,"MEAN_MOTION_DOT":0.00000517,"MEAN_MOTION_DDOT":0}]}
